start=new Date('2022-09-17T00:00:00.000Z').valueOf();
sats=[{"EPHEMERIS_TYPE":"0","BSTAR":"-0.01405800000000","INCLINATION":"97.6554","GP_ID":"212750872","LAUNCH_DATE":"2022-08-31","REF_FRAME":"TEME","MEAN_MOTION":"15.64874104","FILE":"3575787","EPOCH":"2022-09-16T22:00:00.999936","COUNTRY_CODE":"US","MEAN_MOTION_DOT":"-0.01230310","APOAPSIS":"374.875","TLE_LINE2":"2 53677  97.6554 138.3957 0001884 128.8831 182.7770 15.64874104  1300","OBJECT_NAME":"STARLINK-4579","SITE":"AFWTR","CENTER_NAME":"EARTH","CLASSIFICATION_TYPE":"U","ELEMENT_SET_NO":"999","RCS_SIZE":"LARGE","NORAD_CAT_ID":"53677","MEAN_ANOMALY":"182.7770","PERIOD":"92.020","OBJECT_ID":"2022-105AF","MEAN_MOTION_DDOT":"0.0000000000000","REV_AT_EPOCH":"130","TLE_LINE1":"1 53677U 22105AF  22259.91667824 -.01230310  00000-0 -14058-1 0  9992","RA_OF_ASC_NODE":"138.3957","TIME_SYSTEM":"UTC","PERIAPSIS":"372.331","ARG_OF_PERICENTER":"128.8831","ECCENTRICITY":"0.00018840","OBJECT_TYPE":"PAYLOAD","DECAY_DATE":null,"SEMIMAJOR_AXIS":"6751.738","MEAN_ELEMENT_THEORY":"SGP4"},{"APOAPSIS":"374.874","MEAN_MOTION_DOT":"-0.01214614","CLASSIFICATION_TYPE":"U","SITE":"AFWTR","TLE_LINE2":"2 53678  97.6554 138.3958 0001831 125.4339 189.2002 15.64862011  1304","OBJECT_NAME":"STARLINK-4418","CENTER_NAME":"EARTH","LAUNCH_DATE":"2022-08-31","REF_FRAME":"TEME","GP_ID":"212751758","INCLINATION":"97.6554","EPHEMERIS_TYPE":"0","BSTAR":"-0.01386600000000","COUNTRY_CODE":"US","EPOCH":"2022-09-16T22:00:00.999936","MEAN_MOTION":"15.64862011","FILE":"3575787","PERIAPSIS":"372.401","RA_OF_ASC_NODE":"138.3958","TIME_SYSTEM":"UTC","TLE_LINE1":"1 53678U 22105AG  22259.91667824 -.01214614  00000-0 -13866-1 0  9998","MEAN_ELEMENT_THEORY":"SGP4","DECAY_DATE":null,"SEMIMAJOR_AXIS":"6751.773","OBJECT_TYPE":"PAYLOAD","ARG_OF_PERICENTER":"125.4339","ECCENTRICITY":"0.00018310","RCS_SIZE":"LARGE","ELEMENT_SET_NO":"999","MEAN_MOTION_DDOT":"0.0000000000000","REV_AT_EPOCH":"130","OBJECT_ID":"2022-105AG","NORAD_CAT_ID":"53678","PERIOD":"92.021","MEAN_ANOMALY":"189.2002"},{"INCLINATION":"97.6555","BSTAR":"-0.01395000000000","EPHEMERIS_TYPE":"0","LAUNCH_DATE":"2022-08-31","REF_FRAME":"TEME","GP_ID":"212751029","EPOCH":"2022-09-16T22:00:00.999936","FILE":"3575787","MEAN_MOTION":"15.64867126","COUNTRY_CODE":"US","MEAN_MOTION_DOT":"-0.01221556","APOAPSIS":"374.997","SITE":"AFWTR","TLE_LINE2":"2 53679  97.6555 138.3955 0002035 132.6227 180.2282 15.64867126  1309","OBJECT_NAME":"STARLINK-4632","CENTER_NAME":"EARTH","CLASSIFICATION_TYPE":"U","RCS_SIZE":"LARGE","ELEMENT_SET_NO":"999","OBJECT_ID":"2022-105AH","MEAN_ANOMALY":"180.2282","PERIOD":"92.021","NORAD_CAT_ID":"53679","REV_AT_EPOCH":"130","MEAN_MOTION_DDOT":"0.0000000000000","TLE_LINE1":"1 53679U 22105AH  22259.91667824 -.01221556  00000-0 -13950-1 0  9996","PERIAPSIS":"372.249","TIME_SYSTEM":"UTC","RA_OF_ASC_NODE":"138.3955","DECAY_DATE":null,"OBJECT_TYPE":"PAYLOAD","SEMIMAJOR_AXIS":"6751.758","ARG_OF_PERICENTER":"132.6227","ECCENTRICITY":"0.00020350","MEAN_ELEMENT_THEORY":"SGP4"},{"CLASSIFICATION_TYPE":"U","TLE_LINE2":"2 53680  97.6554 138.3956 0001732 120.3441 195.4786 15.64860228  1309","SITE":"AFWTR","CENTER_NAME":"EARTH","OBJECT_NAME":"STARLINK-4630","APOAPSIS":"374.812","MEAN_MOTION_DOT":"-0.01213073","COUNTRY_CODE":"US","FILE":"3575787","MEAN_MOTION":"15.64860228","EPOCH":"2022-09-16T22:00:00.999936","GP_ID":"212751812","LAUNCH_DATE":"2022-08-31","REF_FRAME":"TEME","BSTAR":"-0.01384800000000","EPHEMERIS_TYPE":"0","INCLINATION":"97.6554","MEAN_ELEMENT_THEORY":"SGP4","ECCENTRICITY":"0.00017320","ARG_OF_PERICENTER":"120.3441","OBJECT_TYPE":"PAYLOAD","DECAY_DATE":null,"SEMIMAJOR_AXIS":"6751.778","RA_OF_ASC_NODE":"138.3956","TIME_SYSTEM":"UTC","PERIAPSIS":"372.473","TLE_LINE1":"1 53680U 22105AJ  22259.91667824 -.01213073  00000-0 -13848-1 0  9999","MEAN_MOTION_DDOT":"0.0000000000000","REV_AT_EPOCH":"130","MEAN_ANOMALY":"195.4786","PERIOD":"92.021","NORAD_CAT_ID":"53680","OBJECT_ID":"2022-105AJ","ELEMENT_SET_NO":"999","RCS_SIZE":"LARGE"},{"MEAN_MOTION_DDOT":"0.0000000000000","REV_AT_EPOCH":"130","OBJECT_ID":"2022-105AK","PERIOD":"92.023","MEAN_ANOMALY":"179.2379","NORAD_CAT_ID":"53681","RCS_SIZE":"LARGE","ELEMENT_SET_NO":"999","MEAN_ELEMENT_THEORY":"SGP4","DECAY_DATE":null,"OBJECT_TYPE":"PAYLOAD","SEMIMAJOR_AXIS":"6751.890","ARG_OF_PERICENTER":"134.8216","ECCENTRICITY":"0.00019610","PERIAPSIS":"372.431","TIME_SYSTEM":"UTC","RA_OF_ASC_NODE":"138.3954","TLE_LINE1":"1 53681U 22105AK  22259.91667824 -.01158513  00000-0 -13180-1 0  9996","COUNTRY_CODE":"US","EPOCH":"2022-09-16T22:00:00.999936","FILE":"3575787","MEAN_MOTION":"15.64821093","REF_FRAME":"TEME","LAUNCH_DATE":"2022-08-31","GP_ID":"212751288","INCLINATION":"97.6554","BSTAR":"-0.01318000000000","EPHEMERIS_TYPE":"0","CLASSIFICATION_TYPE":"U","TLE_LINE2":"2 53681  97.6554 138.3954 0001961 134.8216 179.2379 15.64821093  1307","SITE":"AFWTR","CENTER_NAME":"EARTH","OBJECT_NAME":"STARLINK-4424","APOAPSIS":"375.079","MEAN_MOTION_DOT":"-0.01158513"},{"REV_AT_EPOCH":"130","MEAN_MOTION_DDOT":"0.0000000000000","OBJECT_ID":"2022-105AL","NORAD_CAT_ID":"53682","PERIOD":"92.021","MEAN_ANOMALY":"172.1204","RCS_SIZE":"LARGE","ELEMENT_SET_NO":"999","MEAN_ELEMENT_THEORY":"SGP4","DECAY_DATE":null,"SEMIMAJOR_AXIS":"6751.788","OBJECT_TYPE":"PAYLOAD","ARG_OF_PERICENTER":"144.8916","ECCENTRICITY":"0.00022840","PERIAPSIS":"372.111","RA_OF_ASC_NODE":"138.3943","TIME_SYSTEM":"UTC","TLE_LINE1":"1 53682U 22105AL  22259.91667824 -.01209200  00000-0 -13798-1 0  9992","COUNTRY_CODE":"US","EPOCH":"2022-09-16T22:00:00.999936","MEAN_MOTION":"15.64856503","FILE":"3575787","LAUNCH_DATE":"2022-08-31","REF_FRAME":"TEME","GP_ID":"212751969","INCLINATION":"97.6555","EPHEMERIS_TYPE":"0","BSTAR":"-0.01379800000000","CLASSIFICATION_TYPE":"U","TLE_LINE2":"2 53682  97.6555 138.3943 0002284 144.8916 172.1204 15.64856503  1307","OBJECT_NAME":"STARLINK-4438","SITE":"AFWTR","CENTER_NAME":"EARTH","APOAPSIS":"375.196","MEAN_MOTION_DOT":"-0.01209200"},{"ELEMENT_SET_NO":"999","RCS_SIZE":"LARGE","MEAN_ANOMALY":"184.0025","PERIOD":"92.021","NORAD_CAT_ID":"53683","OBJECT_ID":"2022-105AM","REV_AT_EPOCH":"130","MEAN_MOTION_DDOT":"0.0000000000000","TLE_LINE1":"1 53683U 22105AM  22259.91667824 -.01221862  00000-0 -13955-1 0  9996","RA_OF_ASC_NODE":"138.3958","TIME_SYSTEM":"UTC","PERIAPSIS":"372.353","ARG_OF_PERICENTER":"131.2237","ECCENTRICITY":"0.00018830","OBJECT_TYPE":"PAYLOAD","DECAY_DATE":null,"SEMIMAJOR_AXIS":"6751.759","MEAN_ELEMENT_THEORY":"SGP4","BSTAR":"-0.01395500000000","EPHEMERIS_TYPE":"0","INCLINATION":"97.6555","GP_ID":"212751444","REF_FRAME":"TEME","LAUNCH_DATE":"2022-08-31","FILE":"3575787","MEAN_MOTION":"15.64866633","EPOCH":"2022-09-16T22:00:00.999936","COUNTRY_CODE":"US","MEAN_MOTION_DOT":"-0.01221862","APOAPSIS":"374.896","TLE_LINE2":"2 53683  97.6555 138.3958 0001883 131.2237 184.0025 15.64866633  1302","SITE":"AFWTR","CENTER_NAME":"EARTH","OBJECT_NAME":"STARLINK-4625","CLASSIFICATION_TYPE":"U"},{"GP_ID":"212751602","REF_FRAME":"TEME","LAUNCH_DATE":"2022-08-31","EPHEMERIS_TYPE":"0","BSTAR":"-0.01366500000000","INCLINATION":"97.6558","COUNTRY_CODE":"US","MEAN_MOTION":"15.67095798","FILE":"3575787","EPOCH":"2022-09-16T22:00:00.999936","APOAPSIS":"368.302","MEAN_MOTION_DOT":"-0.01299507","CLASSIFICATION_TYPE":"U","TLE_LINE2":"2 53684  97.6558 138.4530 0001604 122.2568 297.0811 15.67095798  1308","SITE":"AFWTR","CENTER_NAME":"EARTH","OBJECT_NAME":"STARLINK-4624","ELEMENT_SET_NO":"999","RCS_SIZE":"LARGE","REV_AT_EPOCH":"130","MEAN_MOTION_DDOT":"0.0000000000000","NORAD_CAT_ID":"53684","MEAN_ANOMALY":"297.0811","PERIOD":"91.890","OBJECT_ID":"2022-105AN","RA_OF_ASC_NODE":"138.4530","TIME_SYSTEM":"UTC","PERIAPSIS":"366.138","TLE_LINE1":"1 53684U 22105AN  22259.91667824 -.01299507  00000-0 -13665-1 0  9996","MEAN_ELEMENT_THEORY":"SGP4","ARG_OF_PERICENTER":"122.2568","ECCENTRICITY":"0.00016040","OBJECT_TYPE":"PAYLOAD","DECAY_DATE":null,"SEMIMAJOR_AXIS":"6745.355"},{"INCLINATION":"97.6554","EPHEMERIS_TYPE":"0","BSTAR":"-0.01307000000000","LAUNCH_DATE":"2022-08-31","REF_FRAME":"TEME","GP_ID":"212750873","EPOCH":"2022-09-16T22:00:00.999936","MEAN_MOTION":"15.64814672","FILE":"3575787","COUNTRY_CODE":"US","MEAN_MOTION_DOT":"-0.01149378","APOAPSIS":"374.924","SITE":"AFWTR","TLE_LINE2":"2 53685  97.6554 138.3957 0001703 119.2707 197.1661 15.64814672  1308","CENTER_NAME":"EARTH","OBJECT_NAME":"STARLINK-4626","CLASSIFICATION_TYPE":"U","RCS_SIZE":"LARGE","ELEMENT_SET_NO":"999","OBJECT_ID":"2022-105AP","NORAD_CAT_ID":"53685","MEAN_ANOMALY":"197.1661","PERIOD":"92.024","MEAN_MOTION_DDOT":"0.0000000000000","REV_AT_EPOCH":"130","TLE_LINE1":"1 53685U 22105AP  22259.91667824 -.01149378  00000-0 -13070-1 0  9997","PERIAPSIS":"372.624","TIME_SYSTEM":"UTC","RA_OF_ASC_NODE":"138.3957","SEMIMAJOR_AXIS":"6751.909","DECAY_DATE":null,"OBJECT_TYPE":"PAYLOAD","ARG_OF_PERICENTER":"119.2707","ECCENTRICITY":"0.00017030","MEAN_ELEMENT_THEORY":"SGP4"},{"EPOCH":"2022-09-16T22:00:00.999936","FILE":"3575787","MEAN_MOTION":"15.64855650","COUNTRY_CODE":"US","INCLINATION":"97.6555","BSTAR":"-0.01379000000000","EPHEMERIS_TYPE":"0","REF_FRAME":"TEME","LAUNCH_DATE":"2022-08-31","GP_ID":"212751759","SITE":"AFWTR","TLE_LINE2":"2 53686  97.6555 138.3945 0001999 135.1339 183.0660 15.64855650  1306","CENTER_NAME":"EARTH","OBJECT_NAME":"STARLINK-4467","CLASSIFICATION_TYPE":"U","MEAN_MOTION_DOT":"-0.01208405","APOAPSIS":"375.006","OBJECT_ID":"2022-105AQ","MEAN_ANOMALY":"183.0660","PERIOD":"92.021","NORAD_CAT_ID":"53686","REV_AT_EPOCH":"130","MEAN_MOTION_DDOT":"0.0000000000000","RCS_SIZE":"LARGE","ELEMENT_SET_NO":"999","OBJECT_TYPE":"PAYLOAD","DECAY_DATE":null,"SEMIMAJOR_AXIS":"6751.791","ARG_OF_PERICENTER":"135.1339","ECCENTRICITY":"0.00019990","MEAN_ELEMENT_THEORY":"SGP4","TLE_LINE1":"1 53686U 22105AQ  22259.91667824 -.01208405  00000-0 -13790-1 0  9994","PERIAPSIS":"372.306","TIME_SYSTEM":"UTC","RA_OF_ASC_NODE":"138.3945"}];
